{
  "norad_id": 58090,
  "name": "STARLINK-30590",
  "history": [
    {
      "epoch": "2026-03-28T17:10:49.759680Z",
      "apogee_km": 485.3213785249018,
      "perigee_km": 484.02732681624366,
      "latitude_deg": 9.942626796414142e-07,
      "longitude_deg": -109.83724439750402,
      "height_km": 484.3372967106071,
      "semi_major_axis_km": 6862.811352670573,
      "eccentricity": 9.428e-05,
      "inclination_deg": 42.9989,
      "raan_deg": 334.0024,
      "arg_perigee_deg": 280.0849,
      "mean_anomaly_deg": 79.9896,
      "mean_motion_rev_day": 15.27037388
    },
    {
      "epoch": "2026-03-29T01:01:46.716384Z",
      "apogee_km": 485.4094941368139,
      "perigee_km": 483.90242480291454,
      "latitude_deg": 9.58011813880231e-06,
      "longitude_deg": 130.2589917431261,
      "height_km": 484.3241144535488,
      "semi_major_axis_km": 6862.792959469864,
      "eccentricity": 0.0001098,
      "inclination_deg": 43.0,
      "raan_deg": 332.1583,
      "arg_perigee_deg": 278.267,
      "mean_anomaly_deg": 81.8057,
      "mean_motion_rev_day": 15.27043527
    },
    {
      "epoch": "2026-03-30T00:34:36.684480Z",
      "apogee_km": 485.32865274776486,
      "perigee_km": 483.85357796664994,
      "latitude_deg": -2.1252043875714133e-05,
      "longitude_deg": 130.5450092859883,
      "height_km": 484.232176553695,
      "semi_major_axis_km": 6862.728115357207,
      "eccentricity": 0.00010747,
      "inclination_deg": 42.9995,
      "raan_deg": 326.6196,
      "arg_perigee_deg": 280.5758,
      "mean_anomaly_deg": 79.4972,
      "mean_motion_rev_day": 15.2706517
    },
    {
      "epoch": "2026-03-30T08:25:33.189312Z",
      "apogee_km": 485.2956997047577,
      "perigee_km": 483.88225266270274,
      "latitude_deg": -8.11960066026827e-06,
      "longitude_deg": 10.641438697018213,
      "height_km": 484.2432175252032,
      "semi_major_axis_km": 6862.7259761837295,
      "eccentricity": 0.00010298,
      "inclination_deg": 42.9983,
      "raan_deg": 324.7738,
      "arg_perigee_deg": 279.9415,
      "mean_anomaly_deg": 80.132,
      "mean_motion_rev_day": 15.27065884
    },
    {
      "epoch": "2026-03-30T22:33:14.511456Z",
      "apogee_km": 485.1601018132005,
      "perigee_km": 483.937994681728,
      "latitude_deg": -3.3895510016947816e-05,
      "longitude_deg": 154.81801398702916,
      "height_km": 484.2328184307543,
      "semi_major_axis_km": 6862.686048247464,
      "eccentricity": 8.904e-05,
      "inclination_deg": 42.9978,
      "raan_deg": 321.4528,
      "arg_perigee_deg": 278.6882,
      "mean_anomaly_deg": 81.3868,
      "mean_motion_rev_day": 15.27079211
    },
    {
      "epoch": "2026-03-31T00:07:25.733280Z",
      "apogee_km": 485.1551112797297,
      "perigee_km": 483.92929952006216,
      "latitude_deg": -1.000598086284809e-05,
      "longitude_deg": 130.83771321118095,
      "height_km": 484.22734898337126,
      "semi_major_axis_km": 6862.679205399896,
      "eccentricity": 8.931e-05,
      "inclination_deg": 42.9977,
      "raan_deg": 321.0837,
      "arg_perigee_deg": 278.5308,
      "mean_anomaly_deg": 81.5442,
      "mean_motion_rev_day": 15.27081495
    },
    {
      "epoch": "2026-03-31T23:40:12.616032Z",
      "apogee_km": 485.03729443345674,
      "perigee_km": 483.8112292384167,
      "latitude_deg": -6.090939342860905e-06,
      "longitude_deg": 131.13865947130878,
      "height_km": 484.17738009179305,
      "semi_major_axis_km": 6862.561261835936,
      "eccentricity": 8.933e-05,
      "inclination_deg": 42.9976,
      "raan_deg": 315.547,
      "arg_perigee_deg": 272.1434,
      "mean_anomaly_deg": 87.9315,
      "mean_motion_rev_day": 15.27120863
    }
  ]
}